[{"OBJECT_NAME":"XINGYUN-2 02","OBJECT_ID":"2020-028B","EPOCH":"2026-03-10T00:08:18.521088","MEAN_MOTION":15.11086378,"ECCENTRICITY":0.0009258,"INCLINATION":97.5114,"RA_OF_ASC_NODE":76.7595,"ARG_OF_PERICENTER":249.9829,"MEAN_ANOMALY":110.0404,"EPHEMERIS_TYPE":0,"CLASSIFICATION_TYPE":"U","NORAD_CAT_ID":45603,"ELEMENT_SET_NO":999,"REV_AT_EPOCH":31985,"BSTAR":0.00013296102,"MEAN_MOTION_DOT":2.163e-5,"MEAN_MOTION_DDOT":0},{"OBJECT_NAME":"STARLINK-3447","OBJECT_ID":"2022-016Y","EPOCH":"2026-03-09T22:02:00.322656","MEAN_MOTION":15.08831091,"ECCENTRICITY":0.00011872,"INCLINATION":53.2185,"RA_OF_ASC_NODE":318.1844,"ARG_OF_PERICENTER":95.5867,"MEAN_ANOMALY":264.526,"EPHEMERIS_TYPE":0,"CLASSIFICATION_TYPE":"U","NORAD_CAT_ID":51736,"ELEMENT_SET_NO":999,"REV_AT_EPOCH":22359,"BSTAR":8.0531666e-5,"MEAN_MOTION_DOT":9.94e-6,"MEAN_MOTION_DDOT":0}]
